HIMAWARI-8              
1 40267U 14060A   23196.06855008 -.00000275  00000+0  00000+0 0  9996
2 40267   0.0242 303.1037 0000522 159.2221 355.6415  1.00273753 32155
